OBJECT_NAME,OBJECT_ID,EPOCH,MEAN_MOTION,ECCENTRICITY,INCLINATION,RA_OF_ASC_NODE,ARG_OF_PERICENTER,MEAN_ANOMALY,EPHEMERIS_TYPE,CLASSIFICATION_TYPE,NORAD_CAT_ID,ELEMENT_SET_NO,REV_AT_EPOCH,BSTAR,MEAN_MOTION_DOT,MEAN_MOTION_DDOT
STARLINK-30052,2023-119K,2024-11-28T15:45:24.973056,15.02523808,.0002927,43.0099,93.7995,290.0597,69.9931,0,U,57611,999,7296,.17633E-3,.2178E-4,0
STARLINK-30245,2023-119L,2024-11-29T01:14:59.011296,15.02540352,.0001343,43.0037,91.6095,276.3219,83.7470,0,U,57612,999,7304,.80098E-4,.879E-5,0
STARLINK-30041,2023-119M,2024-11-28T15:35:49.017696,15.02517549,.0000472,43.0002,93.7478,18.9255,341.1605,0,U,57613,999,7298,.32421E-3,.4177E-4,0
STARLINK-30244,2023-119N,2024-11-28T17:06:45.227808,15.02538454,.0001389,43.0028,93.3588,268.9565,91.1119,0,U,57614,999,7299,.87522E-4,.979E-5,0
STARLINK-30246,2023-119P,2024-11-28T15:26:13.653312,15.02535329,.0001147,43.0027,93.6840,263.3036,96.7675,0,U,57615,999,7298,.25277E-3,.3212E-4,0
STARLINK-30075,2023-119Q,2024-11-28T16:57:20.397312,15.02531315,.0001215,43.0039,94.1734,266.0054,94.0650,0,U,57616,999,7298,.99241E-4,.1137E-4,0
STARLINK-30148,2023-119R,2024-11-28T15:16:48.798624,15.02535743,.0001257,43.0038,94.5091,268.4230,91.6469,0,U,57617,999,7297,.17085E-3,.2105E-4,0
STARLINK-30249,2023-119S,2024-11-28T15:12:01.030464,15.02547442,.0001542,42.9998,94.4830,275.8013,84.2654,0,U,57618,999,7297,.34584E-3,.4472E-4,0
STARLINK-30141,2023-119U,2024-11-28T18:07:25.047264,15.02593798,.0003141,43.0098,93.6806,279.2457,80.8031,0,U,57620,999,7299,.92932E-3,.12392E-3,0
STARLINK-30150,2023-119V,2024-11-28T08:34:43.718016,15.02556271,.0001262,43.0040,95.8552,257.3450,102.7251,0,U,57621,999,7293,.11237E-3,.1315E-4,0
STARLINK-30056,2023-119W,2024-11-28T14:52:49.698624,15.02540642,.0001085,43.0005,94.3559,257.1831,102.8890,0,U,57622,999,7297,.14552E-3,.1763E-4,0
STARLINK-30100,2023-119X,2024-11-28T14:48:02.070432,15.02529081,.0001139,43.0000,94.3546,214.2777,145.7991,0,U,57623,999,7297,-.44931E-5,-.264E-5,0
STARLINK-30309,2023-122A,2024-11-28T15:45:08.736768,15.02538543,.0000944,43.0057,107.3322,263.0168,97.0567,0,U,57632,999,7207,.13878E-3,.1672E-4,0
STARLINK-30306,2023-122B,2024-11-28T15:40:21.253728,15.02537204,.0001471,43.0053,107.3082,269.3459,90.7215,0,U,57633,999,7207,.87739E-4,.982E-5,0
STARLINK-30323,2023-122C,2024-11-28T17:08:21.702912,15.02517874,.0001261,43.0015,93.3187,289.5278,70.5428,0,U,57634,999,7222,-.13826E-3,-.207E-4,0
STARLINK-30329,2023-122D,2024-11-28T18:46:59.976768,15.02566584,.0001411,43.0013,106.5642,300.2759,59.7944,0,U,57635,999,7209,-.24757E-3,-.3549E-4,0
STARLINK-30330,2023-122E,2024-11-28T15:30:45.588672,15.02541566,.0001604,43.0019,107.2561,279.5714,80.4947,0,U,57636,999,7207,.44622E-3,.583E-4,0
STARLINK-30311,2023-122F,2024-11-28T15:21:10.347840,15.02535960,.0001275,43.0022,107.2040,259.4843,100.5856,0,U,57637,999,7207,.13152E-3,.1573E-4,0
STARLINK-30328,2023-122G,2024-11-28T15:42:11.426688,15.02546381,.0001458,43.0010,93.6702,274.2270,85.8405,0,U,57638,999,7224,.36086E-3,.4676E-4,0
STARLINK-30326,2023-122H,2024-11-28T16:04:09.398208,15.02557142,.0001939,43.0062,106.5661,267.2166,92.8454,0,U,57639,999,7208,-.32195E-3,-.4553E-4,0
STARLINK-30324,2023-122J,2024-11-29T02:21:40.622112,15.02549097,.0001383,43.0036,104.6278,274.8832,85.1853,0,U,57640,999,7212,.37945E-3,.4927E-4,0
STARLINK-30312,2023-122K,2024-11-29T02:16:53.044896,15.02536046,.0001406,43.0022,104.6032,275.1710,84.8972,0,U,57641,999,7212,.11235E-3,.1314E-4,0
STARLINK-30263,2023-122L,2024-11-29T02:07:17.798016,15.02527392,.0001134,43.0042,104.5548,277.7891,82.2822,0,U,57642,999,7212,.25368E-3,.3224E-4,0
STARLINK-30280,2023-122M,2024-11-28T19:30:00.019008,15.02536194,.0001229,43.0038,105.9233,269.6085,90.4617,0,U,57643,999,7210,.97982E-4,.112E-4,0
STARLINK-30247,2023-122N,2024-11-28T16:23:20.924448,15.02526546,.0001468,43.0028,106.6747,275.7397,84.3278,0,U,57644,999,7208,-.37992E-5,-.255E-5,0
STARLINK-30277,2023-122P,2024-11-28T16:15:03.765888,15.25895001,.0001569,43.0013,58.9909,296.2604,63.8085,0,U,57645,999,7264,.32202E-4,.584E-5,0
STARLINK-30265,2023-122Q,2024-11-28T08:39:04.854240,15.02537592,.0001277,43.0023,108.5519,270.1048,89.9648,0,U,57646,999,7203,.15292E-3,.1863E-4,0
STARLINK-30286,2023-122R,2024-11-29T01:48:06.779808,15.02541270,.0001507,43.0028,104.4558,281.2038,78.8635,0,U,57647,999,7207,.11465E-3,.1346E-4,0
STARLINK-30243,2023-122S,2024-11-29T01:28:55.828128,15.02542558,.0001445,43.0036,104.3538,265.2484,94.8194,0,U,57648,999,7213,.9929E-4,.1138E-4,0
STARLINK-30299,2023-122U,2024-11-29T01:43:18.921792,15.02544504,.0001429,43.0014,104.4293,275.2054,84.8625,0,U,57650,999,7213,-.10465E-3,-.1617E-4,0
STARLINK-30294,2023-122V,2024-11-29T01:34:06.889728,15.02583713,.0002503,43.0026,91.6593,256.1419,103.9145,0,U,57651,999,7223,.94141E-3,.12552E-3,0
STARLINK-30276,2023-122W,2024-11-29T01:33:42.785856,15.02560904,.000156,43.0027,104.3771,279.9984,80.0683,0,U,57652,999,7212,-.12328E-3,-.187E-4,0
STARLINK-30289,2023-122X,2024-11-28T17:40:18.111936,15.02527754,.0001363,43.0040,93.4442,265.6525,94.4162,0,U,57653,999,7223,.16914E-3,.2081E-4,0
STARLINK-30267,2023-124A,2024-11-28T23:44:06.176832,15.30167771,.0001134,53.1611,210.1692,91.1588,268.9543,0,U,57663,999,7212,.17256E-3,.475E-4,0
STARLINK-30302,2023-124B,2024-11-29T02:04:37.796448,15.41858313,.0006297,53.1633,209.4327,200.9061,159.1689,0,U,57664,999,7227,.57009E-3,.24239E-3,0
STARLINK-30298,2023-124C,2024-11-28T01:34:38.947584,15.34218811,.0001099,53.1585,215.0850,137.1508,222.9580,0,U,57665,999,7211,.93891E-4,.278E-4,0
STARLINK-30301,2023-124D,2024-11-29T02:59:17.034144,15.04937603,.0001327,53.1610,233.2676,93.1524,266.9617,0,U,57666,999,7193,.38618E-3,.5257E-4,0
STARLINK-30275,2023-124E,2024-11-29T04:00:01.999584,15.30159856,.0000955,53.1596,209.3898,74.3373,69.2290,0,U,57667,999,7193,.28538E-2,.85028E-3,0
STARLINK-30278,2023-124F,2024-11-28T23:41:07.722816,15.34203940,.0001148,53.1589,212.1276,87.0903,273.0231,0,U,57668,999,7223,.69409E-5,-.142E-5,0
STARLINK-30271,2023-124G,2024-11-28T16:36:18.946080,15.30178585,.0000255,53.1603,211.5713,27.8192,332.2822,0,U,57669,999,7221,.17912E-3,.4947E-4,0
STARLINK-30322,2023-124H,2024-11-29T02:35:25.079424,15.34236947,.0001056,53.1602,212.1447,67.1039,293.0075,0,U,57670,999,7187,.1486E-2,.49905E-3,0
STARLINK-30296,2023-124J,2024-11-28T23:48:39.657888,15.30177622,.0001293,53.1596,210.1408,71.6037,288.5104,0,U,57671,999,7196,.75259E-4,.1869E-4,0
STARLINK-30274,2023-124K,2024-11-28T22:27:03.984192,15.34222041,.0000832,53.1595,210.6104,114.2046,245.9044,0,U,57672,999,7210,.92013E-4,.2717E-4,0
STARLINK-30316,2023-124L,2024-11-28T22:00:20.644704,15.34220452,.0001111,53.1600,211.0976,98.4178,261.6951,0,U,57673,999,7194,.42526E-4,.1053E-4,0
STARLINK-30314,2023-124M,2024-11-28T23:14:33.660096,15.54435208,.0011489,53.1545,205.8033,151.7007,208.4630,0,U,57674,999,7196,.15635E-2,.105709E-2,0
STARLINK-30317,2023-124N,2024-11-28T09:10:16.057920,15.34220274,.0000925,53.1594,213.5406,115.6988,244.4110,0,U,57675,999,7216,.5744E-4,.1555E-4,0
STARLINK-30313,2023-124P,2024-11-28T09:49:54.279264,15.34224522,.0001247,53.1601,213.0158,68.4529,291.6607,0,U,57676,999,7217,.71321E-4,.2021E-4,0
STARLINK-30303,2023-124Q,2024-11-29T02:28:51.930912,15.34189824,.0000742,53.1601,210.1935,98.1700,261.9387,0,U,57677,999,7213,.60295E-4,.1649E-4,0
STARLINK-30320,2023-124R,2024-11-29T01:54:41.038560,15.34288862,.0000578,53.1608,210.0852,109.4784,250.6281,0,U,57678,999,7227,.30545E-3,.9922E-4,0
STARLINK-30321,2023-124S,2024-11-28T23:34:39.835200,15.34200199,.0001277,53.1612,210.8618,106.6709,253.4434,0,U,57679,999,7179,.78866E-4,.2273E-4,0
STARLINK-30283,2023-124T,2024-11-28T15:49:16.235616,15.30192763,.0001181,53.1612,211.6613,91.9651,268.1485,0,U,57680,999,7221,.18151E-4,.178E-5,0
STARLINK-30273,2023-124U,2024-11-28T22:40:41.450016,15.34223615,.0002086,53.1604,211.7447,137.3640,222.7525,0,U,57681,999,7223,.1451E-3,.4502E-4,0
STARLINK-30297,2023-124V,2024-11-28T22:13:38.904672,15.34212970,.0000863,53.1593,210.5488,75.7475,284.3624,0,U,57682,999,7225,.68856E-4,.1938E-4,0
STARLINK-30295,2023-124W,2024-11-29T01:27:15.768288,15.30191795,.0001284,53.1582,209.8775,59.1562,300.9565,0,U,57683,999,7226,.64002E-4,.1536E-4,0
STARLINK-30288,2023-129A,2024-11-28T17:19:56.428032,15.02539754,.0001243,43.0018,131.9859,242.7748,117.2967,0,U,57698,999,7056,-.58758E-5,-.283E-5,0
STARLINK-30347,2023-129B,2024-11-28T20:08:01.906080,15.02539560,.0000899,43.0034,119.2132,271.2177,88.8562,0,U,57699,999,7072,.20854E-3,.2615E-4,0
STARLINK-30332,2023-129C,2024-11-28T17:15:08.983008,15.02534025,.00013,43.0033,131.9646,266.4702,93.5992,0,U,57700,999,7042,.89896E-4,.1011E-4,0
STARLINK-30345,2023-129D,2024-11-29T04:06:14.641056,15.02533541,.0001032,43.0018,130.1965,264.0411,96.0314,0,U,57701,999,7026,.57677E-4,.576E-5,0
STARLINK-30333,2023-129E,2024-11-28T11:59:19.888800,15.02553410,.000214,43.0001,133.7578,265.0261,95.0337,0,U,57702,999,7052,-.21944E-2,-.29736E-3,0
STARLINK-30336,2023-129F,2024-11-29T04:01:28.350336,15.02540570,.0000806,43.0023,130.1738,346.1369,13.9451,0,U,57703,999,7032,.11424E-3,.134E-4,0
STARLINK-30346,2023-129G,2024-11-29T03:46:58.609056,15.02587855,.0000851,43.0038,130.0968,259.1739,100.9007,0,U,57704,999,7048,.57132E-3,.7533E-4,0
STARLINK-30342,2023-129H,2024-11-28T17:10:21.271008,15.02535617,.0001313,43.0042,131.9387,267.2482,92.8210,0,U,57705,999,7056,.29821E-3,.3827E-4,0
STARLINK-30327,2023-129K,2024-11-29T02:11:45.125664,15.02538048,.0001175,43.0015,117.7443,265.7681,94.3027,0,U,57707,999,7062,.75056E-4,.81E-5,0
STARLINK-30315,2023-129L,2024-11-29T03:32:39.997824,15.02541786,.0001233,43.0020,130.0217,265.7672,94.3030,0,U,57708,999,7062,.20356E-3,.2548E-4,0
STARLINK-30287,2023-129M,2024-11-29T03:42:15.488352,15.02538879,.0001294,43.0093,130.0722,268.5583,91.5111,0,U,57709,999,7062,.88848E-4,.997E-5,0
STARLINK-30335,2023-129N,2024-11-28T18:03:05.431680,15.02541826,.0000921,42.9991,132.2096,279.4304,80.6434,0,U,57710,999,7056,.10044E-3,.1154E-4,0
